YAOGAN-30 03A           
1 43028U 17075A   26068.67863850  .00004172  00000+0  31199-3 0  9991
2 43028  34.9939 156.9097 0001741 176.2032 183.8689 15.02242801452275
STARLINK-6212           
1 57330U 23099C   26068.49327856  .00001757  00000+0  14519-3 0  9999
2 57330  43.0034 250.3354 0001506 273.5434  86.5236 15.02522631146082
